{
    "links": {
        "self": "http://www.neowsapp.com/rest/v1/neo/54048886?api_key=iIulBulltgU6a56xZRHN4H3l9WmuAYTsLGpBGhQ2"
    },
    "id": "54048886",
    "neo_reference_id": "54048886",
    "name": "(2020 OG1)",
    "designation": "2020 OG1",
    "nasa_jpl_url": "http://ssd.jpl.nasa.gov/sbdb.cgi?sstr=54048886",
    "absolute_magnitude_h": 24.684,
    "estimated_diameter": {
        "kilometers": {
            "estimated_diameter_min": 0.0307436181,
            "estimated_diameter_max": 0.0687448199
        },
        "meters": {
            "estimated_diameter_min": 30.7436180973,
            "estimated_diameter_max": 68.7448199399
        },
        "miles": {
            "estimated_diameter_min": 0.0191031927,
            "estimated_diameter_max": 0.0427160375
        },
        "feet": {
            "estimated_diameter_min": 100.8648919984,
            "estimated_diameter_max": 225.5407550516
        }
    },
    "is_potentially_hazardous_asteroid": false,
    "close_approach_data": [
        {
            "close_approach_date": "2020-07-23",
            "close_approach_date_full": "2020-Jul-23 06:09",
            "epoch_date_close_approach": 1595484540000,
            "relative_velocity": {
                "kilometers_per_second": "11.4913555057",
                "kilometers_per_hour": "41368.8798205517",
                "miles_per_hour": "25705.01313072"
            },
            "miss_distance": {
                "astronomical": "0.0265989914",
                "lunar": "10.3470076546",
                "kilometers": "3979152.457588318",
                "miles": "2472530.6843740684"
            },
            "orbiting_body": "Earth"
        }
    ],
    "orbital_data": {
        "orbit_id": "5",
        "orbit_determination_date": "2020-08-04 06:11:56",
        "first_observation_date": "2020-07-19",
        "last_observation_date": "2020-07-25",
        "data_arc_in_days": 6,
        "observations_used": 69,
        "orbit_uncertainty": "8",
        "minimum_orbit_intersection": ".018372",
        "jupiter_tisserand_invariant": "3.393",
        "epoch_osculation": "2459051.5",
        "eccentricity": ".5808509192147702",
        "semi_major_axis": "2.234555459974854",
        "inclination": "3.762589881772894",
        "ascending_node_longitude": "288.0472499519349",
        "orbital_period": "1220.071082597424",
        "perihelion_distance": ".9366118670120767",
        "perihelion_argument": "54.49776076650372",
        "aphelion_distance": "3.532499052937632",
        "perihelion_time": "2459085.739025317200",
        "mean_anomaly": "349.8972696837049",
        "mean_motion": ".2950647754338965",
        "equinox": "J2000",
        "orbit_class": {
            "orbit_class_type": "APO",
            "orbit_class_description": "Near-Earth asteroid orbits which cross the Earth’s orbit similar to that of 1862 Apollo",
            "orbit_class_range": "a (semi-major axis) > 1.0 AU; q (perihelion) < 1.017 AU"
        }
    },
    "is_sentry_object": false
}